#dP2023  3 23  6  0  0.00000000      96 __u+U ITR00 EXT  IAC
## 2254 367200.00000000   900.00000000 60026 0.2500000000000
+  119   C06C07C08C09C10C11C12C13C14C16C19C20C21C22C23C24C25
+        C26C27C28C29C30C32C33C34C35C36C37C38C39C40C41C42C43
+        C44C45C46E01E02E03E04E05E07E08E09E10E11E12E13E14E15
+        E18E19E21E24E25E26E30E31E33E34E36G01G02G03G04G05G06
+        G07G08G09G10G11G12G13G14G15G16G17G18G19G20G21G22G23
+        G24G25G26G27G28G29G30G31G32J02J03J04R01R02R03R04R05
+        R07R08R09R11R12R13R14R15R16R17R18R19R20R21R22R24R25
++         0  0  0  0  0  0  0  0  0  0  0  0  0  0  0  0  0
++         0  0  0  0  0  0  0  0  0  0  0  0  0  0  0  0  0
++         0  0  0  0  0  0  0  0  0  0  0  0  0  0  0  0  0
++         0  0  0  0  0  0  0  0  0  0  0  0  0  0  0  0  0
++         0  0  0  0  0  0  0  0  0  0  0  0  0  0  0  0  0
++         0  0  0  0  0  0  0  0  0  0  0  0  0  0  0  0  0
++         0  0  0  0  0  0  0  0  0  0  0  0  0  0  0  0  0
%c M  cc GPS ccc cccc cccc cccc cccc ccccc ccccc ccccc ccccc
%c cc cc ccc ccc cccc cccc cccc cccc ccccc ccccc ccccc ccccc
%f  0.0000000  0.000000000  0.00000000000  0.000000000000000
%f  0.0000000  0.000000000  0.00000000000  0.000000000000000
%i    0    0    0    0      0      0      0      0         0
%i    0    0    0    0      0      0      0      0         0
/* IAC                                ULTRA-RAPID PREDICTION
/* S/V CLOCKS ARE ALIGNED TO GNSS TIME                      
/* G:C1WC2W R:C1PC2P E:C1XC5X C:C2IC6I J:C1CC2S             
/* PCV:IGS20_2247 OL/AL:FES2004  NONE     YN ORB:CoN CLK:CoN
*  2023 03 23 23 15  0.00000000
PC06 -11934.817711  23113.947709  33161.153945   -196.748737
PC07 -15403.565632  39113.192278  -4269.294541    -64.462593
PC08    920.793024  32807.767515 -26356.506569    515.276126
PC09  -1065.111731  24672.146273  34599.017961    848.152621
PC10  -9601.413970  39882.160176 -10552.229243    -16.130283
PC11 -18034.948169 -10553.461854  18567.814361    722.580171
PC12   1914.660954 -15583.574305  23105.373450    525.376607
PC13   5762.385122  35845.452113 -21062.418164    236.403239
PC14  -9454.070573 -15339.184093 -21269.198122     30.222192
PC16 -14611.820799  22104.488043  32951.544945    130.220192
PC19  14742.777417   5527.309985  23071.169276   -897.078134
PC20   3783.358528  21631.341980  17258.012936    664.114828
PC21  10388.765102 -25879.802123   -495.586023   -908.823616
PC22  17764.899878 -14551.412868  15841.833125   -571.174263
PC23 -17462.307702   2765.549355  21589.767424   -892.848216
PC24 -11836.003661 -24205.914344  -7328.933368   -258.428594
PC25 -21451.582234 -13996.576856  11088.573130     93.029310
PC26   2389.791766 -19647.230133 -19703.316959    -96.119734
PC27 -11427.175300  15491.428294 -20218.404887    114.975286
PC28 -25504.520467   8359.382855  -7636.009816     84.355451
PC29  25347.878451   3795.078810 -11053.500126     97.501182
PC30   9284.436736  14190.858780 -22175.091157      0.735499
PC32 -10194.753895  25981.923349    487.069317   -593.298077
PC33 -14761.660494  -5498.069882 -23023.927712   -871.185536
PC34 -10615.747334 -13790.282158  21795.825354    133.116416
PC35  25680.333145  -8718.768128   6664.254277    659.109841
PC36  21016.421820  15052.947190 -10484.520380   -545.755715
PC37  -4055.219027  18702.193026  20310.566347   -798.473445
PC38  -6596.603967  28276.161994 -30484.769549     66.964981
PC39 -20761.413620  21076.080231  29999.638964     -2.291717
PC40 -21955.981726  36051.342550  -2579.743922    -18.375048
PC41 -17783.211679  14079.067248 -16203.922153   -760.451202
PC42  -2858.576547 -22428.100866 -16290.030665   -772.174036
PC43 -24927.154745  -4444.350562  11690.885267     13.205639
PC44  11106.164978 -15979.992737  20000.640340     53.602887
PC45  17127.515008  -3152.952185 -21806.070745    -75.978198
PC46  13037.804455  23959.662725   5787.844155    -41.958442
PE01  -8032.446570 -27429.312438   7709.766517    -12.788214
PE02   8326.917230  27196.914755  -8170.220461     28.101777
PE03   6566.400874  16065.948326  23981.574465   -662.117435
PE04 -22202.145592   -843.695753 -19546.114027    -84.918609
PE05 -13309.553495  22184.083948  14392.591711    -83.614623
PE07  25176.829149 -15124.499938   3658.721849    -32.139827
PE08  22015.451600    913.253805  19765.835109    -55.904220
PE09 -25180.300535  15093.973422  -3826.334651   -879.514421
PE10 -27037.398756  -3830.919898 -11423.828252   -521.250656
PE11 -21805.287458   4193.164918 -19570.871912   1354.621080
PE12 -27536.427578 -10578.183114  -2281.258565   -470.130459
PE13  22376.455201  -3531.631351  19064.652253    -17.957829
PE14  21834.363013   3749.421406 -16803.265172    176.829052
PE15  27518.112970  10753.636803   1940.930574     -9.522942
PE18 -27483.684478  10914.656606   4330.426547   -248.787491
PE19  -3743.691366 -17489.903809 -23573.676836  -2936.980451
PE21   3736.984524 -27774.706719  -9544.142918   -519.233925
PE24 -14757.774631  11432.164841  22945.585258  -1181.656408
PE25  -3948.687414  27635.025323   9830.718018   -601.906442
PE26   3407.185517 -16058.947491  24634.662675     54.225185
PE30  16391.370435  10882.846661 -22125.315029    -34.964982
PE31 -16475.882005 -10182.896257  22385.263847   -519.358786
PE33 -16355.758657 -18586.646481  16214.947958   -448.320775
PE34  16543.728974  18541.190955 -16089.283685    -36.462996
PE36  -4174.711794  15584.360390 -24814.778896    -30.658800
PG01  21951.376565  14789.350947  -4213.405420    199.865263
PG02 -23886.951776 -11231.495669   1869.007548   -612.085909
PG03  12475.066424  15789.868348  17272.585254   -344.290435
PG04  17332.293790   5381.517841  19441.981749     -0.172453
PG05  -5467.854179 -25600.215419  -4259.302046   -120.625325
PG06  11735.967821  -9984.569939  21713.117078    583.320330
PG07  24579.403703   5731.788652  -8585.308126    216.899161
PG08   6621.321318  13891.735240 -21686.601640   -114.355557
PG09  22894.249380  -4863.313313  12526.416423   -194.685879
PG10 -11434.172177  15280.342221 -18159.591369    -29.792380
PG11  -2686.643162 -17429.566895  19880.985993   -139.515074
PG12 -10537.615801 -18447.270170  15716.297499   -355.172210
PG13   2202.957145 -16683.971752 -20674.064772    495.053382
PG14  13523.780311 -12308.794617 -19208.880953      4.255815
PG15  -8909.674738 -13448.666417 -21538.505842     24.218321
PG16    563.626763  26233.405265  -2193.963066   -513.620547
PG17  22842.001955 -13650.252433    998.614902    707.040635
PG18 -23208.801627  -2520.684421 -12802.321272   -192.667110
PG19  18059.937862 -16531.269230   9704.102438    294.046973
PG20   -704.941245 -25779.102565   6821.493306    443.194330
PG21  18209.536879  15920.620044 -11306.600170    154.331621
PG22 -14663.477129  18134.785712  12994.532181    450.909289
PG23 -14774.478093   2560.568203 -21911.951705     12.323679
PG24 -20422.373102 -15182.282829  -8671.126682   -123.690997
PG25 -14928.359494  -7791.411818  20288.635304    430.065207
PG26  -5621.544621  23161.381441  11242.528080    241.978284
PG27  -5160.316143  18492.161650 -18410.947668     74.506341
PG28 -13447.080548   9673.015554  20731.284217     50.482084
PG29 -21719.176216     94.198683  15290.532475   -592.261638
PG30  18915.722119  -5042.824740 -17963.396958   -525.651015
PG31  -8311.472819  12846.573175  21555.972174   -212.315916
PG32 -20718.697927  16202.902426   2981.383943   -431.910874
PJ02 -27682.466706  25354.749487  24184.988502     -1.280684
PJ03 -31956.442363  16005.319984 -17762.399997      1.292809
PJ04 -22367.534093  33289.802871  -7874.134113     94.150463
PR01 -14493.399847  20776.173807  -3053.219829     25.316339
PR02  -4906.176514  20088.732953  14940.144426    -23.085985
PR03   7793.790649   7955.986301  22996.382725     74.715712
PR04  15724.756145  -8303.123794  18327.412696    180.544700
PR05  15369.763608 -20043.044868   3668.298800    109.811020
PR07  -8206.500757  -7296.492003 -22979.104358     52.358321
PR08 -15767.968629   8545.603774 -18060.902434    -70.037872
PR09  -7631.711205 -22797.041276  -8399.780782    110.795746
PR11 -13865.354352  -5153.591480  20783.420307    -23.364481
PR12  -4463.181787  13484.835762  21202.559261     25.886964
PR13   6446.475766  22499.788978  10119.611967    -33.235045
PR14  14730.450272  18849.129890  -8871.847990     24.476332
PR15  13567.190995   4093.762621 -21196.251345     90.281450
PR16   4454.579710 -13154.644318 -21384.777343     12.715735
PR17  20085.161429   7473.282434 -13803.662179    614.975146
PR18  25424.003380    690.517129   2341.863503     72.954868
PR19  18826.094137  -5452.799281  16327.142297   -226.408350
PR20  -1996.884992 -10515.642517  23157.031914    -89.885305
PR21 -21193.046303  -6979.130982  12376.862773   -382.602280
PR22 -25273.111769  -1138.429985  -3155.772160     76.185040
PR24   3067.540711  10920.325359 -22831.000453    156.140070
PR25 -19544.803044  -8674.685870  13922.857841     58.637346
EOF
